start=new Date('2021-10-15T00:00:00.000Z').valueOf();
sats=[{"TIME_SYSTEM":"UTC","OBJECT_NAME":"STARLINK-1672","MEAN_ANOMALY":"291.1227","FILE":"3161855","SITE":"AFETR","BSTAR":"-0.00004857900000","MEAN_ELEMENT_THEORY":"SGP4","CENTER_NAME":"EARTH","REF_FRAME":"TEME","CLASSIFICATION_TYPE":"U","LAUNCH_DATE":"2020-10-06","NORAD_CAT_ID":"46537","COUNTRY_CODE":"US","DECAY_DATE":null,"ARG_OF_PERICENTER":"68.9951","SEMIMAJOR_AXIS":"6925.379","OBJECT_TYPE":"PAYLOAD","MEAN_MOTION_DOT":"-0.00001005","REV_AT_EPOCH":"5725","PERIAPSIS":"546.019","ECCENTRICITY":"0.00017690","TLE_LINE1":"1 46537U 20070F   21287.43729514 -.00001005  00000-0 -48579-4 0  9994","RCS_SIZE":"LARGE","OBJECT_ID":"2020-070F","MEAN_MOTION":"15.06389963","GP_ID":"187137528","EPHEMERIS_TYPE":"0","EPOCH":"2021-10-14T10:29:42.300096","APOAPSIS":"548.469","RA_OF_ASC_NODE":"191.8642","TLE_LINE2":"2 46537  53.0551 191.8642 0001769  68.9951 291.1227 15.06389963 57251","PERIOD":"95.593","INCLINATION":"53.0551","MEAN_MOTION_DDOT":"0.0000000000000","ELEMENT_SET_NO":"999"},{"NORAD_CAT_ID":"46538","LAUNCH_DATE":"2020-10-06","COUNTRY_CODE":"US","ARG_OF_PERICENTER":"69.8752","DECAY_DATE":null,"SEMIMAJOR_AXIS":"6925.347","FILE":"3161855","SITE":"AFETR","BSTAR":"0.00012372000000","MEAN_ELEMENT_THEORY":"SGP4","CENTER_NAME":"EARTH","CLASSIFICATION_TYPE":"U","REF_FRAME":"TEME","OBJECT_NAME":"STARLINK-1678","MEAN_ANOMALY":"290.2453","TIME_SYSTEM":"UTC","PERIAPSIS":"545.818","MEAN_MOTION_DOT":"0.00001562","REV_AT_EPOCH":"5720","OBJECT_TYPE":"PAYLOAD","EPOCH":"2021-10-14T03:35:41.497440","APOAPSIS":"548.605","OBJECT_ID":"2020-070G","GP_ID":"187138778","MEAN_MOTION":"15.06400630","EPHEMERIS_TYPE":"0","ECCENTRICITY":"0.00020120","TLE_LINE1":"1 46538U 20070G   21287.14978585  .00001562  00000-0  12372-3 0  9994","RCS_SIZE":"LARGE","MEAN_MOTION_DDOT":"0.0000000000000","ELEMENT_SET_NO":"999","PERIOD":"95.592","INCLINATION":"53.0524","TLE_LINE2":"2 46538  53.0524 193.1556 0002012  69.8752 290.2453 15.06400630 57203","RA_OF_ASC_NODE":"193.1556"},{"INCLINATION":"53.0526","PERIOD":"95.593","TLE_LINE2":"2 46539  53.0526 191.6931 0000300  88.2908 271.8115 15.06390324 56973","RA_OF_ASC_NODE":"191.6931","ELEMENT_SET_NO":"999","MEAN_MOTION_DDOT":"0.0000000000000","ECCENTRICITY":"0.00003000","TLE_LINE1":"1 46539U 20070H   21287.47415259 -.00000493  00000-0 -14272-4 0  9991","RCS_SIZE":"LARGE","EPOCH":"2021-10-14T11:22:46.783776","APOAPSIS":"547.451","MEAN_MOTION":"15.06390324","GP_ID":"187156143","OBJECT_ID":"2020-070H","EPHEMERIS_TYPE":"0","OBJECT_TYPE":"PAYLOAD","PERIAPSIS":"547.035","MEAN_MOTION_DOT":"-0.00000493","REV_AT_EPOCH":"5697","OBJECT_NAME":"STARLINK-1684","MEAN_ANOMALY":"271.8115","TIME_SYSTEM":"UTC","DECAY_DATE":null,"ARG_OF_PERICENTER":"88.2908","NORAD_CAT_ID":"46539","LAUNCH_DATE":"2020-10-06","COUNTRY_CODE":"US","SEMIMAJOR_AXIS":"6925.378","MEAN_ELEMENT_THEORY":"SGP4","CENTER_NAME":"EARTH","FILE":"3162520","SITE":"AFETR","BSTAR":"-0.00001427200000","CLASSIFICATION_TYPE":"U","REF_FRAME":"TEME"},{"EPOCH":"2021-10-14T15:50:50.176608","APOAPSIS":"548.519","GP_ID":"187189641","MEAN_MOTION":"15.06387818","OBJECT_ID":"2020-070K","EPHEMERIS_TYPE":"0","ECCENTRICITY":"0.00018310","RCS_SIZE":"LARGE","TLE_LINE1":"1 46541U 20070K   21287.66030297 -.00002231  00000-0 -13095-3 0  9993","ELEMENT_SET_NO":"999","MEAN_MOTION_DDOT":"0.0000000000000","INCLINATION":"53.0533","PERIOD":"95.593","RA_OF_ASC_NODE":"170.8501","TLE_LINE2":"2 46541  53.0533 170.8501 0001831  78.0687 282.0507 15.06387818 57566","DECAY_DATE":null,"ARG_OF_PERICENTER":"78.0687","LAUNCH_DATE":"2020-10-06","COUNTRY_CODE":"US","NORAD_CAT_ID":"46541","SEMIMAJOR_AXIS":"6925.386","CENTER_NAME":"EARTH","MEAN_ELEMENT_THEORY":"SGP4","FILE":"3163138","BSTAR":"-0.00013095000000","SITE":"AFETR","CLASSIFICATION_TYPE":"U","REF_FRAME":"TEME","OBJECT_NAME":"STARLINK-1687","MEAN_ANOMALY":"282.0507","TIME_SYSTEM":"UTC","PERIAPSIS":"545.983","MEAN_MOTION_DOT":"-0.00002231","REV_AT_EPOCH":"5756","OBJECT_TYPE":"PAYLOAD"},{"MEAN_ELEMENT_THEORY":"SGP4","CENTER_NAME":"EARTH","SITE":"AFETR","FILE":"3163027","BSTAR":"-0.00003295100000","CLASSIFICATION_TYPE":"U","REF_FRAME":"TEME","ARG_OF_PERICENTER":"65.1377","DECAY_DATE":null,"LAUNCH_DATE":"2020-10-06","NORAD_CAT_ID":"46542","COUNTRY_CODE":"US","SEMIMAJOR_AXIS":"6925.376","TIME_SYSTEM":"UTC","OBJECT_NAME":"STARLINK-1692","MEAN_ANOMALY":"294.9807","MEAN_MOTION_DOT":"-0.00000772","REV_AT_EPOCH":"5727","PERIAPSIS":"545.942","OBJECT_TYPE":"PAYLOAD","MEAN_MOTION":"15.06390944","GP_ID":"187167599","OBJECT_ID":"2020-070L","EPHEMERIS_TYPE":"0","EPOCH":"2021-10-14T11:06:51.271488","APOAPSIS":"548.541","ECCENTRICITY":"0.00018760","RCS_SIZE":"LARGE","TLE_LINE1":"1 46542U 20070L   21287.46309342 -.00000772  00000-0 -32951-4 0  9993","ELEMENT_SET_NO":"999","MEAN_MOTION_DDOT":"0.0000000000000","RA_OF_ASC_NODE":"191.7490","TLE_LINE2":"2 46542  53.0526 191.7490 0001876  65.1377 294.9807 15.06390944 57277","PERIOD":"95.593","INCLINATION":"53.0526"},{"SEMIMAJOR_AXIS":"6925.406","ARG_OF_PERICENTER":"72.7005","DECAY_DATE":null,"LAUNCH_DATE":"2020-10-06","COUNTRY_CODE":"US","NORAD_CAT_ID":"46543","REF_FRAME":"TEME","CLASSIFICATION_TYPE":"U","MEAN_ELEMENT_THEORY":"SGP4","CENTER_NAME":"EARTH","SITE":"AFETR","FILE":"3162521","BSTAR":"-0.00001488600000","MEAN_ANOMALY":"287.4179","OBJECT_NAME":"STARLINK-1693","TIME_SYSTEM":"UTC","PERIAPSIS":"546.034","REV_AT_EPOCH":"5727","MEAN_MOTION_DOT":"-0.00000503","OBJECT_TYPE":"PAYLOAD","APOAPSIS":"548.509","EPOCH":"2021-10-14T10:45:38.302272","EPHEMERIS_TYPE":"0","GP_ID":"187156655","MEAN_MOTION":"15.06381193","OBJECT_ID":"2020-070M","RCS_SIZE":"LARGE","TLE_LINE1":"1 46543U 20070M   21287.44835998 -.00000503  00000-0 -14886-4 0  9992","ECCENTRICITY":"0.00017870","ELEMENT_SET_NO":"999","MEAN_MOTION_DDOT":"0.0000000000000","INCLINATION":"53.0539","PERIOD":"95.593","TLE_LINE2":"2 46543  53.0539 191.8036 0001787  72.7005 287.4179 15.06381193 57277","RA_OF_ASC_NODE":"191.8036"},{"REV_AT_EPOCH":"5741","MEAN_MOTION_DOT":"-0.00002582","PERIAPSIS":"546.005","OBJECT_TYPE":"PAYLOAD","CLASSIFICATION_TYPE":"U","REF_FRAME":"TEME","CENTER_NAME":"EARTH","MEAN_ELEMENT_THEORY":"SGP4","SITE":"AFETR","FILE":"3161855","BSTAR":"-0.00015446000000","SEMIMAJOR_AXIS":"6925.333","DECAY_DATE":null,"ARG_OF_PERICENTER":"64.7038","NORAD_CAT_ID":"46544","LAUNCH_DATE":"2020-10-06","COUNTRY_CODE":"US","TIME_SYSTEM":"UTC","MEAN_ANOMALY":"295.4129","OBJECT_NAME":"STARLINK-1694","ELEMENT_SET_NO":"999","MEAN_MOTION_DDOT":"0.0000000000000","RA_OF_ASC_NODE":"178.3131","TLE_LINE2":"2 46544  53.0527 178.3131 0001722  64.7038 295.4129 15.06405190 57411","PERIOD":"95.592","INCLINATION":"53.0527","EPHEMERIS_TYPE":"0","GP_ID":"187139030","MEAN_MOTION":"15.06405190","OBJECT_ID":"2020-070N","APOAPSIS":"548.390","EPOCH":"2021-10-14T02:41:56.613984","TLE_LINE1":"1 46544U 20070N   21287.11246081 -.00002582  00000-0 -15446-3 0  9997","RCS_SIZE":"LARGE","ECCENTRICITY":"0.00017220"},{"MEAN_ELEMENT_THEORY":"SGP4","CENTER_NAME":"EARTH","SITE":"AFETR","FILE":"3162522","BSTAR":"-0.00002596400000","CLASSIFICATION_TYPE":"U","REF_FRAME":"TEME","DECAY_DATE":null,"ARG_OF_PERICENTER":"72.8398","LAUNCH_DATE":"2020-10-06","NORAD_CAT_ID":"46545","COUNTRY_CODE":"US","SEMIMAJOR_AXIS":"6925.336","TIME_SYSTEM":"UTC","OBJECT_NAME":"STARLINK-1696","MEAN_ANOMALY":"287.2801","MEAN_MOTION_DOT":"-0.00000668","REV_AT_EPOCH":"5721","PERIAPSIS":"545.869","OBJECT_TYPE":"PAYLOAD","MEAN_MOTION":"15.06404044","GP_ID":"187156662","OBJECT_ID":"2020-070P","EPHEMERIS_TYPE":"0","EPOCH":"2021-10-14T03:40:59.891808","APOAPSIS":"548.533","ECCENTRICITY":"0.00019230","RCS_SIZE":"LARGE","TLE_LINE1":"1 46545U 20070P   21287.15347097 -.00000668  00000-0 -25964-4 0  9991","ELEMENT_SET_NO":"999","MEAN_MOTION_DDOT":"0.0000000000000","RA_OF_ASC_NODE":"193.1370","TLE_LINE2":"2 46545  53.0546 193.1370 0001923  72.8398 287.2801 15.06404044 57216","PERIOD":"95.592","INCLINATION":"53.0546"},{"CLASSIFICATION_TYPE":"U","REF_FRAME":"TEME","BSTAR":"-0.00016995000000","FILE":"3163138","SITE":"AFETR","MEAN_ELEMENT_THEORY":"SGP4","CENTER_NAME":"EARTH","SEMIMAJOR_AXIS":"6925.382","COUNTRY_CODE":"US","LAUNCH_DATE":"2020-10-06","NORAD_CAT_ID":"46546","DECAY_DATE":null,"ARG_OF_PERICENTER":"70.4394","TIME_SYSTEM":"UTC","MEAN_ANOMALY":"289.6802","OBJECT_NAME":"STARLINK-1697","REV_AT_EPOCH":"5729","MEAN_MOTION_DOT":"-0.00002811","PERIAPSIS":"545.921","OBJECT_TYPE":"PAYLOAD","EPHEMERIS_TYPE":"0","OBJECT_ID":"2020-070Q","GP_ID":"187189892","MEAN_MOTION":"15.06389140","APOAPSIS":"548.572","EPOCH":"2021-10-14T17:39:38.486304","TLE_LINE1":"1 46546U 20070Q   21287.73586211 -.00002811  00000-0 -16995-3 0  9994","RCS_SIZE":"LARGE","ECCENTRICITY":"0.00019140","MEAN_MOTION_DDOT":"0.0000000000000","ELEMENT_SET_NO":"999","TLE_LINE2":"2 46546  53.0519 190.5129 0001914  70.4394 289.6802 15.06389140 57294","RA_OF_ASC_NODE":"190.5129","PERIOD":"95.593","INCLINATION":"53.0519"},{"RCS_SIZE":"LARGE","TLE_LINE1":"1 46547U 20070R   21287.69899158 -.00000120  00000-0  10830-4 0  9990","ECCENTRICITY":"0.00015900","APOAPSIS":"548.316","EPOCH":"2021-10-14T16:46:32.872512","EPHEMERIS_TYPE":"0","OBJECT_ID":"2020-070R","GP_ID":"187189141","MEAN_MOTION":"15.06399732","PERIOD":"95.592","INCLINATION":"53.0535","TLE_LINE2":"2 46547  53.0535 190.6854 0001590  81.5563 278.5606 15.06399732 57297","RA_OF_ASC_NODE":"190.6854","MEAN_MOTION_DDOT":"0.0000000000000","ELEMENT_SET_NO":"999","MEAN_ANOMALY":"278.5606","OBJECT_NAME":"STARLINK-1698","TIME_SYSTEM":"UTC","SEMIMAJOR_AXIS":"6925.349","NORAD_CAT_ID":"46547","LAUNCH_DATE":"2020-10-06","COUNTRY_CODE":"US","DECAY_DATE":null,"ARG_OF_PERICENTER":"81.5563","CLASSIFICATION_TYPE":"U","REF_FRAME":"TEME","FILE":"3163138","SITE":"AFETR","BSTAR":"0.00001083000000","MEAN_ELEMENT_THEORY":"SGP4","CENTER_NAME":"EARTH","OBJECT_TYPE":"PAYLOAD","PERIAPSIS":"546.113","REV_AT_EPOCH":"5729","MEAN_MOTION_DOT":"-0.00000120"}];
